[{"OBJECT_NAME":"STARLINK-34971","OBJECT_ID":"2025-179X","EPOCH":"2026-03-09T17:10:08.234112","MEAN_MOTION":15.0565359,"ECCENTRICITY":0.00010742,"INCLINATION":97.6028,"RA_OF_ASC_NODE":113.0124,"ARG_OF_PERICENTER":111.6129,"MEAN_ANOMALY":248.5213,"EPHEMERIS_TYPE":0,"CLASSIFICATION_TYPE":"U","NORAD_CAT_ID":65256,"ELEMENT_SET_NO":999,"REV_AT_EPOCH":3155,"BSTAR":0.00024395888,"MEAN_MOTION_DOT":3.461e-5,"MEAN_MOTION_DDOT":0},{"OBJECT_NAME":"NOAA 16 DEB","OBJECT_ID":"2000-055NX","EPOCH":"2026-03-08T23:11:13.556832","MEAN_MOTION":15.01016664,"ECCENTRICITY":0.00157984,"INCLINATION":98.8636,"RA_OF_ASC_NODE":259.6913,"ARG_OF_PERICENTER":295.8562,"MEAN_ANOMALY":64.1029,"EPHEMERIS_TYPE":0,"CLASSIFICATION_TYPE":"U","NORAD_CAT_ID":41658,"ELEMENT_SET_NO":999,"REV_AT_EPOCH":9741,"BSTAR":0.010110988,"MEAN_MOTION_DOT":0.00131742,"MEAN_MOTION_DDOT":0}]
